BEIDOU-3 M28            
1 58654U 23207A   26160.78184758 -.00000050  00000+0  00000+0 0  9999
2 58654  55.7464  62.5530 0003453 344.4551  15.5580  1.86229705 16701
BEIDOU-3 M26            
1 58655U 23207B   26161.11630072 -.00000052  00000+0  00000+0 0  9995
2 58655  55.7488  62.5282 0003354 318.7401  41.2579  1.86229715 16693
GSAT0225 (GALILEO 29)   
1 59598U 24079A   26160.48196544  .00000021  00000+0  00000+0 0  9995
2 59598  55.1155 101.2960 0001734 292.0981 244.7042  1.70474016 13181
GSAT0227 (GALILEO 30)   
1 59600U 24079C   26159.20410498  .00000025  00000+0  00000+0 0  9998
2 59600  55.1096 101.3297 0001920  44.5115 315.4782  1.70474042 13219
GSAT0232 (GALILEO 32)   
1 61182U 24167A   26160.62262443  .00000048  00000+0  00000+0 0  9992
2 61182  55.1871 221.5218 0006019 224.7960 141.3462  1.70474371 10752
GSAT0226 (GALILEO 31)   
1 61183U 24167B   26161.04466462  .00000050  00000+0  00000+0 0  9990
2 61183  55.1858 221.5174 0002794 222.8893 133.6064  1.70474300 10720
BEIDOU-3 M25            
1 61186U 24168B   26160.93174132 -.00000062  00000+0  00000+0 0  9995
2 61186  54.4805 302.4952 0003022 303.1226  50.4730  1.86230012 11643
BEIDOU-3 M27            
1 61187U 24168C   26159.66259997 -.00000058  00000+0  00000+0 0  9992
2 61187  54.4771 302.5224 0001707  47.9603 309.7688  1.86230165  9096
NAVSTAR 83 (USA 440)    
1 62339U 24242A   26160.86685300 -.00000062  00000+0  00000+0 0  9995
2 62339  54.8503 334.4786 0017316   3.9741 359.2011  2.00571348 11112
QZS-6 (MICHIBIKI-6)     
1 62876U 25023A   26161.42918080 -.00000216  00000+0  00000+0 0  9997
2 62876   0.0360  59.4029 0001859  27.8201  56.5870  1.00272893  4885
COSMOS 2584 [GLONASS-K2]
1 63130U 25042A   26159.22437978 -.00000015  00000+0  00000+0 0  9996
2 63130  65.0792  73.1067 0005828 228.4476 131.5246  2.13103875  9858
NAVSTAR 84 (USA 545)    
1 64202U 25116A   26155.36633038 -.00000073  00000+0  00000+0 0  9999
2 64202  55.2259  31.6468 0008452 337.8257 196.1658  2.00577081  7616
COSMOS 2596 [GLONASS-K1]
1 65590U 25206B   26160.94699288 -.00000037  00000+0  00000+0 0  9999
2 65590  64.6381 315.2379 0011083 312.6704  45.2644  2.13100671  5754
GSAT0233 (GALILEO 33)   
1 67160U 25302A   26157.66258742  .00000023  00000+0  00000+0 0  9996
2 67160  54.3305 102.4316 0001324 236.8649 300.4651  1.70474269  2941
GSAT0234 (GALILEO 34)   
1 67162U 25302C   26159.72591772  .00000025  00000+0  00000+0 0  9992
2 67162  54.3315 102.3718 0003125 304.5628 239.1894  1.70474133  3038
NAVSTAR 85 (USA 581)    
1 67588U 26017A   26159.22322786  .00000005  00000+0  00000+0 0  9998
2 67588  55.0831  89.1152 0021774 257.0982 102.6538  2.00571164431434
NAVSTAR 86 (USA 585)    
1 68791U 26087A   26158.43909353  .00000057  00000+0  00000+0 0  9992
2 68791  54.9638 208.1735 0020931 107.2972 251.8874  2.00569573   638
